start=new Date('2023-07-03T00:00:00.000Z').valueOf();
sats=[{"NORAD_CAT_ID":"53964","OBJECT_TYPE":"PAYLOAD","REF_FRAME":"TEME","MEAN_MOTION":"15.08837502","SEMIMAJOR_AXIS":"6917.888","PERIOD":"95.438","EPOCH":"2023-07-02T15:10:52.190400","CLASSIFICATION_TYPE":"U","CENTER_NAME":"EARTH","FILE":"3947779","ECCENTRICITY":"0.00010040","BSTAR":"0.00007210300000","MEAN_MOTION_DOT":"0.00000860","ARG_OF_PERICENTER":"81.1017","PERIAPSIS":"539.058","DECAY_DATE":null,"TLE_LINE1":"1 53964U 22125A   23183.63254850  .00000860  00000-0  72103-4 0  9990","COUNTRY_CODE":"US","APOAPSIS":"540.448","INCLINATION":"53.2178","ELEMENT_SET_NO":"999","GP_ID":"234675460","TIME_SYSTEM":"UTC","LAUNCH_DATE":"2022-10-05","OBJECT_NAME":"STARLINK-4633","SITE":"AFWTR","RA_OF_ASC_NODE":"308.4123","OBJECT_ID":"2022-125A","MEAN_ELEMENT_THEORY":"SGP4","EPHEMERIS_TYPE":"0","TLE_LINE2":"2 53964  53.2178 308.4123 0001004  81.1017 279.0089 15.08837502 41288","MEAN_ANOMALY":"279.0089","RCS_SIZE":"LARGE","MEAN_MOTION_DDOT":"0.0000000000000","REV_AT_EPOCH":"4128"},{"BSTAR":"0.00000846240000","MEAN_MOTION_DOT":"-0.00000153","ARG_OF_PERICENTER":"101.6655","CENTER_NAME":"EARTH","FILE":"3947779","ECCENTRICITY":"0.00009590","PERIOD":"95.437","CLASSIFICATION_TYPE":"U","EPOCH":"2023-07-02T15:06:55.973664","NORAD_CAT_ID":"53965","OBJECT_TYPE":"PAYLOAD","REF_FRAME":"TEME","MEAN_MOTION":"15.08845105","SEMIMAJOR_AXIS":"6917.865","EPHEMERIS_TYPE":"0","MEAN_ELEMENT_THEORY":"SGP4","TLE_LINE2":"2 53965  53.2178 308.3939 0000959 101.6655 258.4445 15.08845105 41282","RCS_SIZE":"LARGE","MEAN_ANOMALY":"258.4445","MEAN_MOTION_DDOT":"0.0000000000000","REV_AT_EPOCH":"4128","LAUNCH_DATE":"2022-10-05","OBJECT_NAME":"STARLINK-4578","SITE":"AFWTR","RA_OF_ASC_NODE":"308.3939","OBJECT_ID":"2022-125B","GP_ID":"234675682","ELEMENT_SET_NO":"999","TIME_SYSTEM":"UTC","PERIAPSIS":"539.066","DECAY_DATE":null,"INCLINATION":"53.2178","TLE_LINE1":"1 53965U 22125B   23183.62981451 -.00000153  00000-0  84624-5 0  9992","COUNTRY_CODE":"US","APOAPSIS":"540.393"},{"REF_FRAME":"TEME","MEAN_MOTION":"15.08843963","SEMIMAJOR_AXIS":"6917.868","NORAD_CAT_ID":"53966","OBJECT_TYPE":"PAYLOAD","EPOCH":"2023-07-02T15:00:14.906592","CLASSIFICATION_TYPE":"U","PERIOD":"95.437","FILE":"3947779","ECCENTRICITY":"0.00011570","CENTER_NAME":"EARTH","MEAN_MOTION_DOT":"0.00000706","ARG_OF_PERICENTER":"98.9331","BSTAR":"0.00006244500000","PERIAPSIS":"538.933","DECAY_DATE":null,"TLE_LINE1":"1 53966U 22125C   23183.62517253  .00000706  00000-0  62445-4 0  9997","COUNTRY_CODE":"US","APOAPSIS":"540.534","INCLINATION":"53.2178","GP_ID":"234675467","ELEMENT_SET_NO":"999","TIME_SYSTEM":"UTC","OBJECT_ID":"2022-125C","RA_OF_ASC_NODE":"308.3651","LAUNCH_DATE":"2022-10-05","SITE":"AFWTR","OBJECT_NAME":"STARLINK-4635","RCS_SIZE":"LARGE","MEAN_ANOMALY":"261.1792","MEAN_MOTION_DDOT":"0.0000000000000","REV_AT_EPOCH":"4128","EPHEMERIS_TYPE":"0","MEAN_ELEMENT_THEORY":"SGP4","TLE_LINE2":"2 53966  53.2178 308.3651 0001157  98.9331 261.1792 15.08843963 41280"},{"RA_OF_ASC_NODE":"308.3429","OBJECT_ID":"2022-125D","SITE":"AFWTR","OBJECT_NAME":"STARLINK-4634","LAUNCH_DATE":"2022-10-05","REV_AT_EPOCH":"4128","MEAN_MOTION_DDOT":"0.0000000000000","MEAN_ANOMALY":"288.5915","RCS_SIZE":"LARGE","TLE_LINE2":"2 53967  53.2188 308.3429 0000790  71.5163 288.5915 15.08825942 41284","MEAN_ELEMENT_THEORY":"SGP4","EPHEMERIS_TYPE":"0","TLE_LINE1":"1 53967U 22125D   23183.62150743 -.00001608  00000-0 -82992-4 0  9998","COUNTRY_CODE":"US","APOAPSIS":"540.335","INCLINATION":"53.2188","PERIAPSIS":"539.242","DECAY_DATE":null,"TIME_SYSTEM":"UTC","ELEMENT_SET_NO":"999","GP_ID":"234675837","FILE":"3947792","ECCENTRICITY":"0.00007900","CENTER_NAME":"EARTH","ARG_OF_PERICENTER":"71.5163","MEAN_MOTION_DOT":"-0.00001608","BSTAR":"-0.00008299200000","SEMIMAJOR_AXIS":"6917.923","MEAN_MOTION":"15.08825942","REF_FRAME":"TEME","OBJECT_TYPE":"PAYLOAD","NORAD_CAT_ID":"53967","EPOCH":"2023-07-02T14:54:58.241952","CLASSIFICATION_TYPE":"U","PERIOD":"95.438"},{"REF_FRAME":"TEME","SEMIMAJOR_AXIS":"6917.899","MEAN_MOTION":"15.08834070","OBJECT_TYPE":"PAYLOAD","NORAD_CAT_ID":"53968","EPOCH":"2023-07-02T14:39:01.907136","CLASSIFICATION_TYPE":"U","PERIOD":"95.438","FILE":"3947780","ECCENTRICITY":"0.00004480","CENTER_NAME":"EARTH","MEAN_MOTION_DOT":"0.00002382","ARG_OF_PERICENTER":"102.6771","BSTAR":"0.00016768000000","PERIAPSIS":"539.454","DECAY_DATE":null,"TLE_LINE1":"1 53968U 22125E   23183.61043874  .00002382  00000-0  16768-3 0  9999","COUNTRY_CODE":"US","APOAPSIS":"540.073","INCLINATION":"53.2172","ELEMENT_SET_NO":"999","GP_ID":"234675709","TIME_SYSTEM":"UTC","RA_OF_ASC_NODE":"308.2721","OBJECT_ID":"2022-125E","LAUNCH_DATE":"2022-10-05","SITE":"AFWTR","OBJECT_NAME":"STARLINK-4629","MEAN_ANOMALY":"257.4272","RCS_SIZE":"LARGE","REV_AT_EPOCH":"4128","MEAN_MOTION_DDOT":"0.0000000000000","EPHEMERIS_TYPE":"0","MEAN_ELEMENT_THEORY":"SGP4","TLE_LINE2":"2 53968  53.2172 308.2721 0000448 102.6771 257.4272 15.08834070 41286"},{"TIME_SYSTEM":"UTC","GP_ID":"234675480","ELEMENT_SET_NO":"999","INCLINATION":"53.2179","TLE_LINE1":"1 53969U 22125F   23183.61780007  .00000355  00000-0  40365-4 0  9995","COUNTRY_CODE":"US","APOAPSIS":"540.377","PERIAPSIS":"539.063","DECAY_DATE":null,"MEAN_MOTION_DDOT":"0.0000000000000","REV_AT_EPOCH":"4128","MEAN_ANOMALY":"264.2131","RCS_SIZE":"LARGE","TLE_LINE2":"2 53969  53.2179 308.3180 0000950  95.8969 264.2131 15.08848402 41288","MEAN_ELEMENT_THEORY":"SGP4","EPHEMERIS_TYPE":"0","RA_OF_ASC_NODE":"308.3180","OBJECT_ID":"2022-125F","SITE":"AFWTR","OBJECT_NAME":"STARLINK-4468","LAUNCH_DATE":"2022-10-05","EPOCH":"2023-07-02T14:49:37.926048","CLASSIFICATION_TYPE":"U","PERIOD":"95.437","MEAN_MOTION":"15.08848402","SEMIMAJOR_AXIS":"6917.855","REF_FRAME":"TEME","NORAD_CAT_ID":"53969","OBJECT_TYPE":"PAYLOAD","ARG_OF_PERICENTER":"95.8969","MEAN_MOTION_DOT":"0.00000355","BSTAR":"0.00004036500000","ECCENTRICITY":"0.00009500","FILE":"3947780","CENTER_NAME":"EARTH"},{"COUNTRY_CODE":"US","TLE_LINE1":"1 53970U 22125G   23183.62013095 -.00000494  00000-0 -12939-4 0  9996","APOAPSIS":"540.658","INCLINATION":"53.2165","DECAY_DATE":null,"PERIAPSIS":"538.916","TIME_SYSTEM":"UTC","GP_ID":"234676129","ELEMENT_SET_NO":"999","OBJECT_NAME":"STARLINK-4567","SITE":"AFWTR","LAUNCH_DATE":"2022-10-05","OBJECT_ID":"2022-125G","RA_OF_ASC_NODE":"303.3571","TLE_LINE2":"2 53970  53.2165 303.3571 0001259  88.9796 271.1340 15.08826269 41352","EPHEMERIS_TYPE":"0","MEAN_ELEMENT_THEORY":"SGP4","MEAN_MOTION_DDOT":"0.0000000000000","REV_AT_EPOCH":"4135","RCS_SIZE":"LARGE","MEAN_ANOMALY":"271.1340","NORAD_CAT_ID":"53970","OBJECT_TYPE":"PAYLOAD","MEAN_MOTION":"15.08826269","SEMIMAJOR_AXIS":"6917.922","REF_FRAME":"TEME","PERIOD":"95.438","CLASSIFICATION_TYPE":"U","EPOCH":"2023-07-02T14:52:59.314080","CENTER_NAME":"EARTH","ECCENTRICITY":"0.00012590","FILE":"3947812","BSTAR":"-0.00001293900000","ARG_OF_PERICENTER":"88.9796","MEAN_MOTION_DOT":"-0.00000494"},{"ARG_OF_PERICENTER":"79.8003","MEAN_MOTION_DOT":"0.00001492","BSTAR":"0.00011179000000","FILE":"3947781","ECCENTRICITY":"0.00009850","CENTER_NAME":"EARTH","EPOCH":"2023-07-02T14:44:19.630176","CLASSIFICATION_TYPE":"U","PERIOD":"95.437","MEAN_MOTION":"15.08847637","SEMIMAJOR_AXIS":"6917.857","REF_FRAME":"TEME","NORAD_CAT_ID":"53971","OBJECT_TYPE":"PAYLOAD","MEAN_MOTION_DDOT":"0.0000000000000","REV_AT_EPOCH":"4128","RCS_SIZE":"LARGE","MEAN_ANOMALY":"280.3100","TLE_LINE2":"2 53971  53.2171 308.2967 0000985  79.8003 280.3100 15.08847637 41288","MEAN_ELEMENT_THEORY":"SGP4","EPHEMERIS_TYPE":"0","RA_OF_ASC_NODE":"308.2967","OBJECT_ID":"2022-125H","OBJECT_NAME":"STARLINK-4639","SITE":"AFWTR","LAUNCH_DATE":"2022-10-05","TIME_SYSTEM":"UTC","GP_ID":"234675501","ELEMENT_SET_NO":"999","APOAPSIS":"540.403","TLE_LINE1":"1 53971U 22125H   23183.61411609  .00001492  00000-0  11179-3 0  9990","COUNTRY_CODE":"US","INCLINATION":"53.2171","PERIAPSIS":"539.041","DECAY_DATE":null},{"GP_ID":"234675714","ELEMENT_SET_NO":"999","TIME_SYSTEM":"UTC","DECAY_DATE":null,"PERIAPSIS":"538.954","TLE_LINE1":"1 53972U 22125J   23183.60905547  .00002184  00000-0  15526-3 0  9998","INCLINATION":"53.2167","COUNTRY_CODE":"US","APOAPSIS":"540.509","RCS_SIZE":"LARGE","MEAN_ANOMALY":"275.5476","MEAN_MOTION_DDOT":"0.0000000000000","REV_AT_EPOCH":"4135","EPHEMERIS_TYPE":"0","MEAN_ELEMENT_THEORY":"SGP4","TLE_LINE2":"2 53972  53.2167 303.2858 0001124  84.5645 275.5476 15.08844656 41357","RA_OF_ASC_NODE":"303.2858","OBJECT_ID":"2022-125J","LAUNCH_DATE":"2022-10-05","OBJECT_NAME":"STARLINK-5157","SITE":"AFWTR","EPOCH":"2023-07-02T14:37:02.392608","CLASSIFICATION_TYPE":"U","PERIOD":"95.437","REF_FRAME":"TEME","MEAN_MOTION":"15.08844656","SEMIMAJOR_AXIS":"6917.866","NORAD_CAT_ID":"53972","OBJECT_TYPE":"PAYLOAD","MEAN_MOTION_DOT":"0.00002184","ARG_OF_PERICENTER":"84.5645","BSTAR":"0.00015526000000","ECCENTRICITY":"0.00011240","FILE":"3947781","CENTER_NAME":"EARTH"},{"EPHEMERIS_TYPE":"0","MEAN_ELEMENT_THEORY":"SGP4","TLE_LINE2":"2 53973  53.2172 309.4417 0000521  88.4096 271.6955 15.08843638 41242","RCS_SIZE":"LARGE","MEAN_ANOMALY":"271.6955","MEAN_MOTION_DDOT":"0.0000000000000","REV_AT_EPOCH":"4124","LAUNCH_DATE":"2022-10-05","SITE":"AFWTR","OBJECT_NAME":"STARLINK-5156","RA_OF_ASC_NODE":"309.4417","OBJECT_ID":"2022-125K","ELEMENT_SET_NO":"999","GP_ID":"234674712","TIME_SYSTEM":"UTC","DECAY_DATE":null,"PERIAPSIS":"539.374","TLE_LINE1":"1 53973U 22125K   23183.34179135 -.00000781  00000-0 -31033-4 0  9991","APOAPSIS":"540.095","COUNTRY_CODE":"US","INCLINATION":"53.2172","BSTAR":"-0.00003103300000","MEAN_MOTION_DOT":"-0.00000781","ARG_OF_PERICENTER":"88.4096","CENTER_NAME":"EARTH","ECCENTRICITY":"0.00005210","FILE":"3947753","PERIOD":"95.437","CLASSIFICATION_TYPE":"U","EPOCH":"2023-07-02T08:12:10.772640","NORAD_CAT_ID":"53973","OBJECT_TYPE":"PAYLOAD","REF_FRAME":"TEME","MEAN_MOTION":"15.08843638","SEMIMAJOR_AXIS":"6917.869"}];
